[{"OBJECT_NAME":"STARLINK-3777","OBJECT_ID":"2022-041AK","EPOCH":"2026-03-09T11:32:38.867424","MEAN_MOTION":15.08844411,"ECCENTRICITY":0.00012646,"INCLINATION":53.2165,"RA_OF_ASC_NODE":100.0567,"ARG_OF_PERICENTER":96.9843,"MEAN_ANOMALY":263.1294,"EPHEMERIS_TYPE":0,"CLASSIFICATION_TYPE":"U","NORAD_CAT_ID":52294,"ELEMENT_SET_NO":999,"REV_AT_EPOCH":21447,"BSTAR":6.750349e-6,"MEAN_MOTION_DOT":-1.8e-6,"MEAN_MOTION_DDOT":0},{"OBJECT_NAME":"NOAA 17 DEB","OBJECT_ID":"2002-032DT","EPOCH":"2026-03-08T22:47:54.624192","MEAN_MOTION":15.08678856,"ECCENTRICITY":0.0018728,"INCLINATION":98.77,"RA_OF_ASC_NODE":121.3607,"ARG_OF_PERICENTER":298.7191,"MEAN_ANOMALY":61.2152,"EPHEMERIS_TYPE":0,"CLASSIFICATION_TYPE":"U","NORAD_CAT_ID":49489,"ELEMENT_SET_NO":999,"REV_AT_EPOCH":24229,"BSTAR":0.0068247859,"MEAN_MOTION_DOT":0.00108865,"MEAN_MOTION_DDOT":0}]
